{
    "links": {
        "self": "http://www.neowsapp.com/rest/v1/neo/3842876?api_key=iIulBulltgU6a56xZRHN4H3l9WmuAYTsLGpBGhQ2"
    },
    "id": "3842876",
    "neo_reference_id": "3842876",
    "name": "(2019 LA5)",
    "designation": "2019 LA5",
    "nasa_jpl_url": "http://ssd.jpl.nasa.gov/sbdb.cgi?sstr=3842876",
    "absolute_magnitude_h": 25.4,
    "estimated_diameter": {
        "kilometers": {
            "estimated_diameter_min": 0.022108281,
            "estimated_diameter_max": 0.0494356193
        },
        "meters": {
            "estimated_diameter_min": 22.1082810359,
            "estimated_diameter_max": 49.435619262
        },
        "miles": {
            "estimated_diameter_min": 0.0137374447,
            "estimated_diameter_max": 0.0307178602
        },
        "feet": {
            "estimated_diameter_min": 72.5337327539,
            "estimated_diameter_max": 162.1903570994
        }
    },
    "is_potentially_hazardous_asteroid": false,
    "close_approach_data": [
        {
            "close_approach_date": "2019-06-18",
            "close_approach_date_full": "2019-Jun-18 21:47",
            "epoch_date_close_approach": 1560894420000,
            "relative_velocity": {
                "kilometers_per_second": "7.7480708962",
                "kilometers_per_hour": "27893.0552261941",
                "miles_per_hour": "17331.6597876316"
            },
            "miss_distance": {
                "astronomical": "0.0468448409",
                "lunar": "18.2226431101",
                "kilometers": "7007888.419128883",
                "miles": "4354499.9428012654"
            },
            "orbiting_body": "Earth"
        }
    ],
    "orbital_data": {
        "orbit_id": "3",
        "orbit_determination_date": "2019-06-28 13:24:00",
        "first_observation_date": "2019-05-31",
        "last_observation_date": "2019-06-28",
        "data_arc_in_days": 28,
        "observations_used": 49,
        "orbit_uncertainty": "7",
        "minimum_orbit_intersection": ".0464224",
        "jupiter_tisserand_invariant": "3.308",
        "epoch_osculation": "2459000.5",
        "eccentricity": ".5566293548784297",
        "semi_major_axis": "2.373426909551124",
        "inclination": "6.152558006295874",
        "ascending_node_longitude": "100.5035375665692",
        "orbital_period": "1335.556360265261",
        "perihelion_distance": "1.052307820036577",
        "perihelion_argument": "159.5569424034144",
        "aphelion_distance": "3.694545999065672",
        "perihelion_time": "2458646.952152553498",
        "mean_anomaly": "95.29902957855069",
        "mean_motion": ".2695505863402864",
        "equinox": "J2000",
        "orbit_class": {
            "orbit_class_type": "AMO",
            "orbit_class_description": "Near-Earth asteroid orbits similar to that of 1221 Amor",
            "orbit_class_range": "1.017 AU < q (perihelion) < 1.3 AU"
        }
    },
    "is_sentry_object": false
}